start=new Date('2023-06-30T00:00:00.000Z').valueOf();
sats=[{"REV_AT_EPOCH":"12893","NORAD_CAT_ID":"47750","APOAPSIS":"547.668","SEMIMAJOR_AXIS":"6925.241","INCLINATION":"53.0540","MEAN_MOTION_DOT":"0.00023131","ECCENTRICITY":"0.00008120","BSTAR":"0.00156520000000","GP_ID":"234628980","CLASSIFICATION_TYPE":"U","OBJECT_TYPE":"PAYLOAD","TIME_SYSTEM":"UTC","ARG_OF_PERICENTER":"73.5725","PERIOD":"95.590","MEAN_MOTION_DDOT":"0.0000000000000","FILE":"3945910","DECAY_DATE":null,"MEAN_MOTION":"15.06435257","RCS_SIZE":"LARGE","MEAN_ELEMENT_THEORY":"SGP4","TLE_LINE2":"2 47750  53.0540 298.7923 0000812  73.5725 286.5353 15.06435257128935","SITE":"AFETR","PERIAPSIS":"546.543","MEAN_ANOMALY":"286.5353","OBJECT_NAME":"STARLINK-2164","TLE_LINE1":"1 47750U 21017AE  23180.72918673  .00023131  00000-0  15652-2 0  9992","EPOCH":"2023-06-29T17:30:01.733472","CENTER_NAME":"EARTH","REF_FRAME":"TEME","COUNTRY_CODE":"US","OBJECT_ID":"2021-017AE","ELEMENT_SET_NO":"999","EPHEMERIS_TYPE":"0","LAUNCH_DATE":"2021-03-04","RA_OF_ASC_NODE":"298.7923"},{"SEMIMAJOR_AXIS":"6925.270","INCLINATION":"53.0548","MEAN_MOTION_DOT":"0.00014366","ECCENTRICITY":"0.00010940","REV_AT_EPOCH":"12902","NORAD_CAT_ID":"47751","APOAPSIS":"547.892","CLASSIFICATION_TYPE":"U","BSTAR":"0.00098067000000","GP_ID":"234622670","PERIOD":"95.591","TIME_SYSTEM":"UTC","OBJECT_TYPE":"PAYLOAD","ARG_OF_PERICENTER":"104.3368","MEAN_MOTION_DDOT":"0.0000000000000","FILE":"3945671","DECAY_DATE":null,"MEAN_MOTION":"15.06425775","MEAN_ANOMALY":"255.7742","PERIAPSIS":"546.377","OBJECT_NAME":"STARLINK-2168","RCS_SIZE":"LARGE","MEAN_ELEMENT_THEORY":"SGP4","SITE":"AFETR","TLE_LINE2":"2 47751  53.0548 290.1417 0001094 104.3368 255.7742 15.06425775129022","CENTER_NAME":"EARTH","REF_FRAME":"TEME","TLE_LINE1":"1 47751U 21017AF  23180.42787127  .00014366  00000-0  98067-3 0  9990","EPOCH":"2023-06-29T10:16:08.077728","ELEMENT_SET_NO":"999","OBJECT_ID":"2021-017AF","RA_OF_ASC_NODE":"290.1417","LAUNCH_DATE":"2021-03-04","EPHEMERIS_TYPE":"0","COUNTRY_CODE":"US"},{"COUNTRY_CODE":"US","ELEMENT_SET_NO":"999","OBJECT_ID":"2021-017AG","LAUNCH_DATE":"2021-03-04","RA_OF_ASC_NODE":"303.8008","EPHEMERIS_TYPE":"0","TLE_LINE1":"1 47752U 21017AG  23180.72688464  .00015591  00000-0  10625-2 0  9992","EPOCH":"2023-06-29T17:26:42.832896","CENTER_NAME":"EARTH","REF_FRAME":"TEME","RCS_SIZE":"LARGE","MEAN_ELEMENT_THEORY":"SGP4","SITE":"AFETR","TLE_LINE2":"2 47752  53.0541 303.8008 0000868  83.5007 276.6081 15.06425842128864","MEAN_ANOMALY":"276.6081","PERIAPSIS":"546.533","OBJECT_NAME":"STARLINK-2169","DECAY_DATE":null,"MEAN_MOTION":"15.06425842","MEAN_MOTION_DDOT":"0.0000000000000","FILE":"3945930","OBJECT_TYPE":"PAYLOAD","TIME_SYSTEM":"UTC","ARG_OF_PERICENTER":"83.5007","PERIOD":"95.591","BSTAR":"0.00106250000000","GP_ID":"234628998","CLASSIFICATION_TYPE":"U","REV_AT_EPOCH":"12886","NORAD_CAT_ID":"47752","APOAPSIS":"547.735","SEMIMAJOR_AXIS":"6925.269","INCLINATION":"53.0541","MEAN_MOTION_DOT":"0.00015591","ECCENTRICITY":"0.00008680"},{"MEAN_MOTION_DDOT":"0.0000000000000","FILE":"3945163","OBJECT_TYPE":"PAYLOAD","TIME_SYSTEM":"UTC","ARG_OF_PERICENTER":"82.4568","PERIOD":"95.593","BSTAR":"0.00130880000000","GP_ID":"234610037","CLASSIFICATION_TYPE":"U","REV_AT_EPOCH":"12862","NORAD_CAT_ID":"47753","APOAPSIS":"547.865","SEMIMAJOR_AXIS":"6925.386","INCLINATION":"53.0542","MEAN_MOTION_DOT":"0.00019260","ECCENTRICITY":"0.00008870","COUNTRY_CODE":"US","ELEMENT_SET_NO":"999","OBJECT_ID":"2021-017AH","EPHEMERIS_TYPE":"0","LAUNCH_DATE":"2021-03-04","RA_OF_ASC_NODE":"313.6743","TLE_LINE1":"1 47753U 21017AH  23179.64092423  .00019260  00000-0  13088-2 0  9999","EPOCH":"2023-06-28T15:22:55.853472","CENTER_NAME":"EARTH","REF_FRAME":"TEME","RCS_SIZE":"LARGE","MEAN_ELEMENT_THEORY":"SGP4","SITE":"AFETR","TLE_LINE2":"2 47753  53.0542 313.6743 0000887  82.4568 277.6522 15.06387885128621","MEAN_ANOMALY":"277.6522","PERIAPSIS":"546.636","OBJECT_NAME":"STARLINK-2170","DECAY_DATE":null,"MEAN_MOTION":"15.06387885"},{"FILE":"3945911","MEAN_MOTION_DDOT":"0.0000000000000","PERIOD":"95.590","ARG_OF_PERICENTER":"109.1435","TIME_SYSTEM":"UTC","OBJECT_TYPE":"PAYLOAD","CLASSIFICATION_TYPE":"U","GP_ID":"234629384","BSTAR":"0.00154160000000","ECCENTRICITY":"0.00007200","INCLINATION":"53.0537","MEAN_MOTION_DOT":"0.00022780","SEMIMAJOR_AXIS":"6925.224","APOAPSIS":"547.588","NORAD_CAT_ID":"47754","REV_AT_EPOCH":"12879","LAUNCH_DATE":"2021-03-04","EPHEMERIS_TYPE":"0","RA_OF_ASC_NODE":"308.7474","ELEMENT_SET_NO":"999","OBJECT_ID":"2021-017AJ","COUNTRY_CODE":"US","REF_FRAME":"TEME","CENTER_NAME":"EARTH","EPOCH":"2023-06-29T17:44:36.842784","TLE_LINE1":"1 47754U 21017AJ  23180.73931531  .00022780  00000-0  15416-2 0  9992","OBJECT_NAME":"STARLINK-2171","MEAN_ANOMALY":"250.9632","PERIAPSIS":"546.591","SITE":"AFETR","TLE_LINE2":"2 47754  53.0537 308.7474 0000720 109.1435 250.9632 15.06440528128796","MEAN_ELEMENT_THEORY":"SGP4","RCS_SIZE":"LARGE","MEAN_MOTION":"15.06440528","DECAY_DATE":null},{"MEAN_MOTION_DDOT":"0.0000000000000","FILE":"3945911","PERIOD":"95.589","ARG_OF_PERICENTER":"101.3694","TIME_SYSTEM":"UTC","OBJECT_TYPE":"PAYLOAD","CLASSIFICATION_TYPE":"U","GP_ID":"234629398","BSTAR":"0.00166200000000","INCLINATION":"53.0551","MEAN_MOTION_DOT":"0.00024593","ECCENTRICITY":"0.00006650","SEMIMAJOR_AXIS":"6925.201","APOAPSIS":"547.527","REV_AT_EPOCH":"12879","NORAD_CAT_ID":"47756","EPHEMERIS_TYPE":"0","LAUNCH_DATE":"2021-03-04","RA_OF_ASC_NODE":"308.7593","OBJECT_ID":"2021-017AL","ELEMENT_SET_NO":"999","COUNTRY_CODE":"US","REF_FRAME":"TEME","CENTER_NAME":"EARTH","TLE_LINE1":"1 47756U 21017AL  23180.73562593  .00024593  00000-0  16620-2 0  9994","EPOCH":"2023-06-29T17:39:18.080352","MEAN_ANOMALY":"258.7369","PERIAPSIS":"546.606","OBJECT_NAME":"STARLINK-2174","TLE_LINE2":"2 47756  53.0551 308.7593 0000665 101.3694 258.7369 15.06448099128799","SITE":"AFETR","RCS_SIZE":"LARGE","MEAN_ELEMENT_THEORY":"SGP4","DECAY_DATE":null,"MEAN_MOTION":"15.06448099"},{"PERIOD":"95.592","ARG_OF_PERICENTER":"56.3321","TIME_SYSTEM":"UTC","OBJECT_TYPE":"PAYLOAD","MEAN_MOTION_DDOT":"0.0000000000000","FILE":"3945153","MEAN_MOTION_DOT":"0.00015575","INCLINATION":"53.0547","ECCENTRICITY":"0.00012670","SEMIMAJOR_AXIS":"6925.360","APOAPSIS":"548.102","REV_AT_EPOCH":"12863","NORAD_CAT_ID":"47757","CLASSIFICATION_TYPE":"U","GP_ID":"234610544","BSTAR":"0.00106230000000","REF_FRAME":"TEME","CENTER_NAME":"EARTH","TLE_LINE1":"1 47757U 21017AM  23179.65935703  .00015575  00000-0  10623-2 0  9998","EPOCH":"2023-06-28T15:49:28.447392","EPHEMERIS_TYPE":"0","LAUNCH_DATE":"2021-03-04","RA_OF_ASC_NODE":"313.5942","ELEMENT_SET_NO":"999","OBJECT_ID":"2021-017AM","COUNTRY_CODE":"US","DECAY_DATE":null,"MEAN_MOTION":"15.06396387","PERIAPSIS":"546.347","MEAN_ANOMALY":"303.7789","OBJECT_NAME":"STARLINK-2175","TLE_LINE2":"2 47757  53.0547 313.5942 0001267  56.3321 303.7789 15.06396387128634","SITE":"AFETR","RCS_SIZE":"LARGE","MEAN_ELEMENT_THEORY":"SGP4"},{"FILE":"3945913","MEAN_MOTION_DDOT":"0.0000000000000","TIME_SYSTEM":"UTC","OBJECT_TYPE":"PAYLOAD","ARG_OF_PERICENTER":"112.8624","PERIOD":"95.590","BSTAR":"0.00131910000000","GP_ID":"234629031","CLASSIFICATION_TYPE":"U","NORAD_CAT_ID":"47760","REV_AT_EPOCH":"12865","APOAPSIS":"547.729","SEMIMAJOR_AXIS":"6925.241","ECCENTRICITY":"0.00009000","INCLINATION":"53.0553","MEAN_MOTION_DOT":"0.00019440","COUNTRY_CODE":"US","ELEMENT_SET_NO":"999","OBJECT_ID":"2021-017AQ","LAUNCH_DATE":"2021-03-04","EPHEMERIS_TYPE":"0","RA_OF_ASC_NODE":"318.6815","EPOCH":"2023-06-29T18:04:31.235520","TLE_LINE1":"1 47760U 21017AQ  23180.75313930  .00019440  00000-0  13191-2 0  9995","CENTER_NAME":"EARTH","REF_FRAME":"TEME","MEAN_ELEMENT_THEORY":"SGP4","RCS_SIZE":"LARGE","SITE":"AFETR","TLE_LINE2":"2 47760  53.0553 318.6815 0000900 112.8624 247.2460 15.06435104128658","OBJECT_NAME":"STARLINK-2178","PERIAPSIS":"546.483","MEAN_ANOMALY":"247.2460","MEAN_MOTION":"15.06435104","DECAY_DATE":null},{"MEAN_MOTION_DOT":"0.00015327","INCLINATION":"53.0555","ECCENTRICITY":"0.00008930","SEMIMAJOR_AXIS":"6925.271","APOAPSIS":"547.755","REV_AT_EPOCH":"12879","NORAD_CAT_ID":"47761","CLASSIFICATION_TYPE":"U","GP_ID":"234629032","BSTAR":"0.00104490000000","PERIOD":"95.591","ARG_OF_PERICENTER":"83.7957","OBJECT_TYPE":"PAYLOAD","TIME_SYSTEM":"UTC","MEAN_MOTION_DDOT":"0.0000000000000","FILE":"3945913","DECAY_DATE":null,"MEAN_MOTION":"15.06425161","PERIAPSIS":"546.518","MEAN_ANOMALY":"276.3133","OBJECT_NAME":"STARLINK-2179","TLE_LINE2":"2 47761  53.0555 308.8420 0000893  83.7957 276.3133 15.06425161128797","SITE":"AFETR","RCS_SIZE":"LARGE","MEAN_ELEMENT_THEORY":"SGP4","REF_FRAME":"TEME","CENTER_NAME":"EARTH","TLE_LINE1":"1 47761U 21017AR  23180.71720780  .00015327  00000-0  10449-2 0  9990","EPOCH":"2023-06-29T17:12:46.753920","EPHEMERIS_TYPE":"0","LAUNCH_DATE":"2021-03-04","RA_OF_ASC_NODE":"308.8420","OBJECT_ID":"2021-017AR","ELEMENT_SET_NO":"999","COUNTRY_CODE":"US"},{"BSTAR":"0.00182470000000","GP_ID":"234629417","CLASSIFICATION_TYPE":"U","REV_AT_EPOCH":"12856","NORAD_CAT_ID":"47762","APOAPSIS":"547.817","SEMIMAJOR_AXIS":"6925.114","MEAN_MOTION_DOT":"0.00027058","INCLINATION":"53.0547","ECCENTRICITY":"0.00012090","MEAN_MOTION_DDOT":"0.0000000000000","FILE":"3945913","TIME_SYSTEM":"UTC","OBJECT_TYPE":"PAYLOAD","ARG_OF_PERICENTER":"48.4862","PERIOD":"95.587","RCS_SIZE":"LARGE","MEAN_ELEMENT_THEORY":"SGP4","SITE":"AFETR","TLE_LINE2":"2 47762  53.0547 324.3328 0001209  48.4862 311.6231 15.06476388128568","MEAN_ANOMALY":"311.6231","PERIAPSIS":"546.142","OBJECT_NAME":"STARLINK-2180","DECAY_DATE":null,"MEAN_MOTION":"15.06476388","COUNTRY_CODE":"US","OBJECT_ID":"2021-017AS","ELEMENT_SET_NO":"999","RA_OF_ASC_NODE":"324.3328","LAUNCH_DATE":"2021-03-04","EPHEMERIS_TYPE":"0","TLE_LINE1":"1 47762U 21017AS  23180.61078777  .00027058  00000-0  18247-2 0  9990","EPOCH":"2023-06-29T14:39:32.063328","CENTER_NAME":"EARTH","REF_FRAME":"TEME"}];
